[{"OBJECT_NAME":"EXCITE","OBJECT_ID":"2018-099BP","EPOCH":"2026-03-09T16:45:15.060672","MEAN_MOTION":15.06036758,"ECCENTRICITY":0.0017626,"INCLINATION":97.4107,"RA_OF_ASC_NODE":111.3606,"ARG_OF_PERICENTER":337.4818,"MEAN_ANOMALY":22.5634,"EPHEMERIS_TYPE":0,"CLASSIFICATION_TYPE":"U","NORAD_CAT_ID":43819,"ELEMENT_SET_NO":999,"REV_AT_EPOCH":39677,"BSTAR":0.00019631388,"MEAN_MOTION_DOT":2.813e-5,"MEAN_MOTION_DDOT":0},{"OBJECT_NAME":"STARLINK-3261","OBJECT_ID":"2021-125AP","EPOCH":"2026-03-09T17:03:51.486048","MEAN_MOTION":15.08834454,"ECCENTRICITY":0.0001058,"INCLINATION":53.2156,"RA_OF_ASC_NODE":239.0268,"ARG_OF_PERICENTER":81.2953,"MEAN_ANOMALY":278.8159,"EPHEMERIS_TYPE":0,"CLASSIFICATION_TYPE":"U","NORAD_CAT_ID":50193,"ELEMENT_SET_NO":999,"REV_AT_EPOCH":23678,"BSTAR":0.00022227956,"MEAN_MOTION_DOT":3.251e-5,"MEAN_MOTION_DDOT":0}]
